ONEWEB-0205             
1 48226U 21031S   24331.90803614 -.00000003  00000+0 -42931-4 0  9990
2 48226  87.9028  42.5024 0001684 108.8671 251.2642 13.14502614173746
ONEWEB-0206             
1 48227U 21031T   24332.18554256  .00000222  00000+0  56352-3 0  9999
2 48227  87.9024  42.4326 0001733 109.0094 251.1224 13.14501849173748
ONEWEB-0182             
1 48228U 21031U   24332.18078948  .00000205  00000+0  51981-3 0  9993
2 48228  87.9026  42.4674 0001930 101.1732 258.9614 13.14501220173952
ONEWEB-0186             
1 48229U 21031V   24331.65907179  .00000301  00000+0  77863-3 0  9996
2 48229  87.9028  42.5342 0001732 102.0101 258.1223 13.14502291173821
ONEWEB-0181             
1 48230U 21031W   24331.63684392  .00000052  00000+0  10458-3 0  9995
2 48230  87.9024  42.6086 0001579 102.4969 257.6337 13.14505451173674
ONEWEB-0188             
1 48231U 21031X   24331.44656993  .00000008  00000+0 -11933-4 0  9993
2 48231  87.9029  42.6408 0001768 104.2592 255.8734 13.14501729173552
ONEWEB-0220             
1 48232U 21031Y   24332.17126722 -.00000017  00000+0 -79136-4 0  9997
2 48232  87.9023  42.4517 0001633 108.7318 251.3989 13.14500871173912
ONEWEB-0165             
1 48233U 21031Z   24331.66698442  .00000125  00000+0  30184-3 0  9991
2 48233  87.9028  42.5791 0001582 108.5259 251.6042 13.14502467173802
